QIANFAN-73              
1 63159U 25046A   25196.92004864  .00000096  00000+0  12998-3 0  9993
2 63159  88.9844 335.4528 0014771 189.5178 170.5696 13.50954783 27183
QIANFAN-74              
1 63160U 25046B   25197.49619582  .00000102  00000+0  13974-3 0  9990
2 63160  88.9845 335.2822 0002077  96.7581 263.3806 13.50911644 27323
QIANFAN-75              
1 63161U 25046C   25197.48384374  .00000104  00000+0  14264-3 0  9993
2 63161  88.9846 335.5150 0015888 191.3651 168.7143 13.50955695 27197
QIANFAN-76              
1 63162U 25046D   25196.88699151 -.00000027  00000+0 -59964-4 0  9992
2 63162  88.9841 335.5577 0013394 192.9605 167.1203 13.50958499 27120
QIANFAN-77              
1 63163U 25046E   25196.81283021  .00000246  00000+0  16983-3 0  9995
2 63163  88.9844 334.8003 0014853 180.1449 179.9726 13.95994904 27532
QIANFAN-78              
1 63164U 25046F   25197.52083215  .00000123  00000+0  17186-3 0  9998
2 63164  88.9845 335.3581 0014736 193.7920 166.2831 13.50954463 27280
QIANFAN-79              
1 63165U 25046G   25197.54957876  .00000121  00000+0  16948-3 0  9997
2 63165  88.9849 335.4568 0014483 191.8388 168.2425 13.50956519 27248
QIANFAN-80              
1 63166U 25046H   25197.56615891  .00000054  00000+0  65700-4 0  9994
2 63166  88.9846 335.1661 0013340 195.6461 164.4280 13.50957173 27392
